SENTINEL-3A             
1 41335U 16011A   26189.46591965  .00000067  00000+0  45866-4 0  9991
2 41335  98.6240 256.5430 0001410  92.1191 268.0151 14.26738521541092
SENTINEL-3B             
1 43437U 18039A   26189.43904758  .00000055  00000+0  40925-4 0  9991
2 43437  98.6239 256.6655 0000990 119.7296 240.3983 14.26740744427155
