{"fetched_at":"2026-07-08T18:00:37.185Z","source":"https://celestrak.org/NORAD/elements/gp.php?NAME=SENTINEL&FORMAT=JSON","constellation":"sentinel-3","records":[{"OBJECT_NAME":"SENTINEL-3A","OBJECT_ID":"2016-011A","EPOCH":"2026-07-08T11:10:55.457760","CLASSIFICATION_TYPE":"U","MEAN_MOTION":14.26738521,"ECCENTRICITY":0.000141,"INCLINATION":98.624,"RA_OF_ASC_NODE":256.543,"ARG_OF_PERICENTER":92.1191,"MEAN_ANOMALY":268.0151,"EPHEMERIS_TYPE":0,"NORAD_CAT_ID":41335,"ELEMENT_SET_NO":999,"REV_AT_EPOCH":54109,"BSTAR":0.000045866,"MEAN_MOTION_DOT":6.7e-7,"MEAN_MOTION_DDOT":0},{"OBJECT_NAME":"SENTINEL-3B","OBJECT_ID":"2018-039A","EPOCH":"2026-07-08T10:32:13.710912","CLASSIFICATION_TYPE":"U","MEAN_MOTION":14.26740744,"ECCENTRICITY":0.000099,"INCLINATION":98.6239,"RA_OF_ASC_NODE":256.6655,"ARG_OF_PERICENTER":119.7296,"MEAN_ANOMALY":240.3983,"EPHEMERIS_TYPE":0,"NORAD_CAT_ID":43437,"ELEMENT_SET_NO":999,"REV_AT_EPOCH":42715,"BSTAR":0.000040925,"MEAN_MOTION_DOT":5.5e-7,"MEAN_MOTION_DDOT":0}]}
